[{"OBJECT_NAME":"OTB-3-GAZELLE","OBJECT_ID":"2022-127A","EPOCH":"2026-03-09T22:46:18.860160","MEAN_MOTION":14.42635336,"ECCENTRICITY":0.00141015,"INCLINATION":98.3911,"RA_OF_ASC_NODE":62.1873,"ARG_OF_PERICENTER":125.0273,"MEAN_ANOMALY":235.2243,"EPHEMERIS_TYPE":0,"CLASSIFICATION_TYPE":"U","NORAD_CAT_ID":54023,"ELEMENT_SET_NO":999,"REV_AT_EPOCH":18005,"BSTAR":6.3190972e-5,"MEAN_MOTION_DOT":1.67e-6,"MEAN_MOTION_DDOT":0},{"OBJECT_NAME":"UNKNOWN","OBJECT_ID":"","EPOCH":"2026-03-06T05:49:21.947232","MEAN_MOTION":14.38489332,"ECCENTRICITY":0.00332739,"INCLINATION":98.6271,"RA_OF_ASC_NODE":71.1442,"ARG_OF_PERICENTER":118.9165,"MEAN_ANOMALY":241.5366,"EPHEMERIS_TYPE":0,"CLASSIFICATION_TYPE":"U","NORAD_CAT_ID":270233,"ELEMENT_SET_NO":999,"REV_AT_EPOCH":32049,"BSTAR":0.00021072844,"MEAN_MOTION_DOT":6.03e-6,"MEAN_MOTION_DDOT":0}]
